Satellite_500_71_14
1 07014U 00000A   23121.00000000  .00000000  00000+0  12222-5 0  9994
2 07014  60.0000 350.0000 0002000  90.0000 212.7273 15.24308387  9991
Satellite_500_71_15
1 07015U 00000A   23121.00000000  .00000000  00000+0  12222-5 0  9995
2 07015  60.0000 350.0000 0002000  90.0000 229.0909 15.24308387  9999
Satellite_500_71_16
1 07016U 00000A   23121.00000000  .00000000  00000+0  12222-5 0  9996
2 07016  60.0000 350.0000 0002000  90.0000 245.4545 15.24308387  9998
Satellite_500_71_17
1 07017U 00000A   23121.00000000  .00000000  00000+0  12222-5 0  9997
2 07017  60.0000 350.0000 0002000  90.0000 261.8182 15.24308387  9998
Satellite_500_71_18
1 07018U 00000A   23121.00000000  .00000000  00000+0  12222-5 0  9998
2 07018  60.0000 350.0000 0002000  90.0000 278.1818 15.24308387  9996
Satellite_500_71_19
1 07019U 00000A   23121.00000000  .00000000  00000+0  12222-5 0  9999
2 07019  60.0000 350.0000 0002000  90.0000 294.5455 15.24308387  9996
Satellite_500_71_20
1 07020U 00000A   23121.00000000  .00000000  00000+0  12222-5 0  9991
2 07020  60.0000 350.0000 0002000  90.0000 310.9091 15.24308387  9997
Satellite_500_71_21
1 07021U 00000A   23121.00000000  .00000000  00000+0  12222-5 0  9992
2 07021  60.0000 350.0000 0002000  90.0000 327.2727 15.24308387  9995
Satellite_500_71_22
1 07022U 00000A   23121.00000000  .00000000  00000+0  12222-5 0  9993
2 07022  60.0000 350.0000 0002000  90.0000 343.6364 15.24308387  9995
Satellite_500_72_1
1 07101U 00000A   23121.00000000  .00000000  00000+0  12222-5 0  9991
2 07101  60.0000 355.0000 0002000  81.8182   0.0000 15.24308387  9998
Satellite_500_72_2
1 07102U 00000A   23121.00000000  .00000000  00000+0  12222-5 0  9992
2 07102  60.0000 355.0000 0002000  81.8182  16.3636 15.24308387  9994
Satellite_500_72_3
1 07103U 00000A   23121.00000000  .00000000  00000+0  12222-5 0  9993
2 07103  60.0000 355.0000 0002000  81.8182  32.7273 15.24308387  9994
Satellite_500_72_4
1 07104U 00000A   23121.00000000  .00000000  00000+0  12222-5 0  9994
2 07104  60.0000 355.0000 0002000  81.8182  49.0909 15.24308387  9992
Satellite_500_72_5
1 07105U 00000A   23121.00000000  .00000000  00000+0  12222-5 0  9995
2 07105  60.0000 355.0000 0002000  81.8182  65.4545 15.24308387  9991
Satellite_500_72_6
1 07106U 00000A   23121.00000000  .00000000  00000+0  12222-5 0  9996
2 07106  60.0000 355.0000 0002000  81.8182  81.8182 15.24308387  9991
Satellite_500_72_7
1 07107U 00000A   23121.00000000  .00000000  00000+0  12222-5 0  9997
2 07107  60.0000 355.0000 0002000  81.8182  98.1818 15.24308387  9999
Satellite_500_72_8
1 07108U 00000A   23121.00000000  .00000000  00000+0  12222-5 0  9998
2 07108  60.0000 355.0000 0002000  81.8182 114.5455 15.24308387  9990
Satellite_500_72_9
1 07109U 00000A   23121.00000000  .00000000  00000+0  12222-5 0  9999
2 07109  60.0000 355.0000 0002000  81.8182 130.9091 15.24308387  9999
Satellite_500_72_10
1 07110U 00000A   23121.00000000  .00000000  00000+0  12222-5 0  9991
2 07110  60.0000 355.0000 0002000  81.8182 147.2727 15.24308387  9998
Satellite_500_72_11
1 07111U 00000A   23121.00000000  .00000000  00000+0  12222-5 0  9992
2 07111  60.0000 355.0000 0002000  81.8182 163.6364 15.24308387  9998
Satellite_500_72_12
1 07112U 00000A   23121.00000000  .00000000  00000+0  12222-5 0  9993
2 07112  60.0000 355.0000 0002000  81.8182 180.0000 15.24308387  9999
Satellite_500_72_13
1 07113U 00000A   23121.00000000  .00000000  00000+0  12222-5 0  9994
2 07113  60.0000 355.0000 0002000  81.8182 196.3636 15.24308387  9995
Satellite_500_72_14
1 07114U 00000A   23121.00000000  .00000000  00000+0  12222-5 0  9995
2 07114  60.0000 355.0000 0002000  81.8182 212.7273 15.24308387  9996
Satellite_500_72_15
1 07115U 00000A   23121.00000000  .00000000  00000+0  12222-5 0  9996
2 07115  60.0000 355.0000 0002000  81.8182 229.0909 15.24308387  9994
Satellite_500_72_16
1 07116U 00000A   23121.00000000  .00000000  00000+0  12222-5 0  9997
2 07116  60.0000 355.0000 0002000  81.8182 245.4545 15.24308387  9993
Satellite_500_72_17
1 07117U 00000A   23121.00000000  .00000000  00000+0  12222-5 0  9998
2 07117  60.0000 355.0000 0002000  81.8182 261.8182 15.24308387  9993
Satellite_500_72_18
1 07118U 00000A   23121.00000000  .00000000  00000+0  12222-5 0  9999
2 07118  60.0000 355.0000 0002000  81.8182 278.1818 15.24308387  9991
Satellite_500_72_19
1 07119U 00000A   23121.00000000  .00000000  00000+0  12222-5 0  9990
2 07119  60.0000 355.0000 0002000  81.8182 294.5455 15.24308387  9991
Satellite_500_72_20
1 07120U 00000A   23121.00000000  .00000000  00000+0  12222-5 0  9992
2 07120  60.0000 355.0000 0002000  81.8182 310.9091 15.24308387  9992
Satellite_500_72_21
1 07121U 00000A   23121.00000000  .00000000  00000+0  12222-5 0  9993
2 07121  60.0000 355.0000 0002000  81.8182 327.2727 15.24308387  9990
Satellite_500_72_22
1 07122U 00000A   23121.00000000  .00000000  00000+0  12222-5 0  9994
2 07122  60.0000 355.0000 0002000  81.8182 343.6364 15.24308387  9990
